{
  "type": "FeatureCollection",
  "features": [
    {
      "type": "Feature",
      "properties": {
        "norad_id": 44793,
        "name": "BEIDOU-3 M22 (C44)",
        "group": "gnss",
        "lat": 29.073472588793518,
        "lon": -30.342294808409008,
        "alt_km": 21507.80437868824,
        "timestamp": "2025-12-25T03:55:56.600258+00:00",
        "meta_object_name": "BEIDOU-3 M22 (C44)",
        "meta_object_id": "2019-078A",
        "meta_epoch": "2025-12-22T23:04:03.320256",
        "meta_mean_motion": 1.86232206,
        "meta_eccentricity": 0.00060944,
        "meta_inclination": 54.0989,
        "meta_ra_of_asc_node": 306.0279,
        "meta_arg_of_pericenter": 24.0205,
        "meta_mean_anomaly": 336.0117,
        "meta_ephemeris_type": 0,
        "meta_classification_type": "U",
        "meta_norad_cat_id": 44793,
        "meta_element_set_no": 999,
        "meta_rev_at_epoch": 4136,
        "meta_bstar": 0,
        "meta_mean_motion_dot": -5.4e-07,
        "meta_mean_motion_ddot": 0,
        "tle_line1": "1 44793U 19078A   25356.96114954 -.00000054  00000+0  00000+0 0  9990",
        "tle_line2": "2 44793  54.0989 306.0279 0006094  24.0205 336.0117  1.86232206 41368"
      },
      "geometry": {
        "type": "Point",
        "coordinates": [
          -30.342294808409008,
          29.073472588793518
        ]
      }
    },
    {
      "type": "Feature",
      "properties": {
        "norad_id": 44794,
        "name": "BEIDOU-3 M21 (C43)",
        "group": "gnss",
        "lat": -41.99789026817312,
        "lon": -94.80583412197407,
        "alt_km": 21528.8699311904,
        "timestamp": "2025-12-25T03:55:56.600269+00:00",
        "meta_object_name": "BEIDOU-3 M21 (C43)",
        "meta_object_id": "2019-078B",
        "meta_epoch": "2025-12-24T04:09:05.808096",
        "meta_mean_motion": 1.86227905,
        "meta_eccentricity": 0.00042864,
        "meta_inclination": 54.0711,
        "meta_ra_of_asc_node": 305.95,
        "meta_arg_of_pericenter": 12.8306,
        "meta_mean_anomaly": 347.188,
        "meta_ephemeris_type": 0,
        "meta_classification_type": "U",
        "meta_norad_cat_id": 44794,
        "meta_element_set_no": 999,
        "meta_rev_at_epoch": 4139,
        "meta_bstar": 0,
        "meta_mean_motion_dot": -5.2e-07,
        "meta_mean_motion_ddot": 0,
        "tle_line1": "1 44794U 19078B   25358.17298389 -.00000052  00000+0  00000+0 0  9999",
        "tle_line2": "2 44794  54.0711 305.9500 0004286  12.8306 347.1880  1.86227905 41398"
      },
      "geometry": {
        "type": "Point",
        "coordinates": [
          -94.80583412197407,
          -41.99789026817312
        ]
      }
    },
    {
      "type": "Feature",
      "properties": {
        "norad_id": 44850,
        "name": "COSMOS 2544 (759)",
        "group": "gnss",
        "lat": 3.108900335856133,
        "lon": -101.86373921613355,
        "alt_km": 19119.782034048905,
        "timestamp": "2025-12-25T03:55:56.600280+00:00",
        "meta_object_name": "COSMOS 2544 (759)",
        "meta_object_id": "2019-088A",
        "meta_epoch": "2025-12-23T01:21:04.162752",
        "meta_mean_motion": 2.13102153,
        "meta_eccentricity": 0.0014323,
        "meta_inclination": 65.465,
        "meta_ra_of_asc_node": 79.6136,
        "meta_arg_of_pericenter": 250.3939,
        "meta_mean_anomaly": 109.4967,
        "meta_ephemeris_type": 0,
        "meta_classification_type": "U",
        "meta_norad_cat_id": 44850,
        "meta_element_set_no": 999,
        "meta_rev_at_epoch": 4696,
        "meta_bstar": 0,
        "meta_mean_motion_dot": 1e-08,
        "meta_mean_motion_ddot": 0,
        "tle_line1": "1 44850U 19088A   25357.05629818  .00000001  00000+0  00000+0 0  9997",
        "tle_line2": "2 44850  65.4650  79.6136 0014323 250.3939 109.4967  2.13102153 46964"
      },
      "geometry": {
        "type": "Point",
        "coordinates": [
          -101.86373921613355,
          3.108900335856133
        ]
      }
    },
    {
      "type": "Feature",
      "properties": {
        "norad_id": 44864,
        "name": "BEIDOU-3 M19 (C41)",
        "group": "gnss",
        "lat": 32.32137950859711,
        "lon": -136.2711950931835,
        "alt_km": 21565.99089196353,
        "timestamp": "2025-12-25T03:55:56.600292+00:00",
        "meta_object_name": "BEIDOU-3 M19 (C41)",
        "meta_object_id": "2019-090A",
        "meta_epoch": "2025-12-23T08:14:02.545728",
        "meta_mean_motion": 1.86231621,
        "meta_eccentricity": 0.00183506,
        "meta_inclination": 56.4016,
        "meta_ra_of_asc_node": 68.6102,
        "meta_arg_of_pericenter": 285.1686,
        "meta_mean_anomaly": 74.3057,
        "meta_ephemeris_type": 0,
        "meta_classification_type": "U",
        "meta_norad_cat_id": 44864,
        "meta_element_set_no": 999,
        "meta_rev_at_epoch": 4095,
        "meta_bstar": 0,
        "meta_mean_motion_dot": -2.5e-07,
        "meta_mean_motion_ddot": 0,
        "tle_line1": "1 44864U 19090A   25357.34308502 -.00000025  00000+0  00000+0 0  9998",
        "tle_line2": "2 44864  56.4016  68.6102 0018350 285.1686  74.3057  1.86231621 40950"
      },
      "geometry": {
        "type": "Point",
        "coordinates": [
          -136.2711950931835,
          32.32137950859711
        ]
      }
    },
    {
      "type": "Feature",
      "properties": {
        "norad_id": 44865,
        "name": "BEIDOU-3 M20 (C42)",
        "group": "gnss",
        "lat": -39.40837375392012,
        "lon": -78.34051522202928,
        "alt_km": 21516.263382065325,
        "timestamp": "2025-12-25T03:55:56.600309+00:00",
        "meta_object_name": "BEIDOU-3 M20 (C42)",
        "meta_object_id": "2019-090B",
        "meta_epoch": "2025-12-24T06:49:50.341152",
        "meta_mean_motion": 1.862316,
        "meta_eccentricity": 0.00155247,
        "meta_inclination": 56.404,
        "meta_ra_of_asc_node": 68.6133,
        "meta_arg_of_pericenter": 297.3471,
        "meta_mean_anomaly": 62.9851,
        "meta_ephemeris_type": 0,
        "meta_classification_type": "U",
        "meta_norad_cat_id": 44865,
        "meta_element_set_no": 999,
        "meta_rev_at_epoch": 4096,
        "meta_bstar": 0,
        "meta_mean_motion_dot": -2.4e-07,
        "meta_mean_motion_ddot": 0,
        "tle_line1": "1 44865U 19090B   25358.28461043 -.00000024  00000+0  00000+0 0  9992",
        "tle_line2": "2 44865  56.4040  68.6133 0015524 297.3471  62.9851  1.86231600 40962"
      },
      "geometry": {
        "type": "Point",
        "coordinates": [
          -78.34051522202928,
          -39.40837375392012
        ]
      }
    },
    {
      "type": "Feature",
      "properties": {
        "norad_id": 45344,
        "name": "BEIDOU-3 G2 (C60)",
        "group": "gnss",
        "lat": -0.39781555894072834,
        "lon": -127.07204811349399,
        "alt_km": 35780.02780916936,
        "timestamp": "2025-12-25T03:55:56.600324+00:00",
        "meta_object_name": "BEIDOU-3 G2 (C60)",
        "meta_object_id": "2020-017A",
        "meta_epoch": "2025-12-24T20:19:44.530752",
        "meta_mean_motion": 1.00272356,
        "meta_eccentricity": 0.0002113,
        "meta_inclination": 2.5183,
        "meta_ra_of_asc_node": 44.1145,
        "meta_arg_of_pericenter": 237.107,
        "meta_mean_anomaly": 197.3749,
        "meta_ephemeris_type": 0,
        "meta_classification_type": "U",
        "meta_norad_cat_id": 45344,
        "meta_element_set_no": 999,
        "meta_rev_at_epoch": 2151,
        "meta_bstar": 0,
        "meta_mean_motion_dot": -1.2e-06,
        "meta_mean_motion_ddot": 0,
        "tle_line1": "1 45344U 20017A   25358.84704318 -.00000120  00000+0  00000+0 0  9990",
        "tle_line2": "2 45344   2.5183  44.1145 0002113 237.1070 197.3749  1.00272356 21512"
      },
      "geometry": {
        "type": "Point",
        "coordinates": [
          -127.07204811349399,
          -0.39781555894072834
        ]
      }
    },
    {
      "type": "Feature",
      "properties": {
        "norad_id": 45358,
        "name": "COSMOS 2545 (760)",
        "group": "gnss",
        "lat": 23.88949532426152,
        "lon": -29.265113837371423,
        "alt_km": 19147.915533750875,
        "timestamp": "2025-12-25T03:55:56.600335+00:00",
        "meta_object_name": "COSMOS 2545 (760)",
        "meta_object_id": "2020-018A",
        "meta_epoch": "2025-12-24T15:50:05.920800",
        "meta_mean_motion": 2.13102682,
        "meta_eccentricity": 0.0011312,
        "meta_inclination": 64.4626,
        "meta_ra_of_asc_node": 318.552,
        "meta_arg_of_pericenter": 250.6883,
        "meta_mean_anomaly": 109.1918,
        "meta_ephemeris_type": 0,
        "meta_classification_type": "U",
        "meta_norad_cat_id": 45358,
        "meta_element_set_no": 999,
        "meta_rev_at_epoch": 4494,
        "meta_bstar": 0,
        "meta_mean_motion_dot": -3.4e-07,
        "meta_mean_motion_ddot": 0,
        "tle_line1": "1 45358U 20018A   25358.65979075 -.00000034  00000+0  00000+0 0  9993",
        "tle_line2": "2 45358  64.4626 318.5520 0011312 250.6883 109.1918  2.13102682 44944"
      },
      "geometry": {
        "type": "Point",
        "coordinates": [
          -29.265113837371423,
          23.88949532426152
        ]
      }
    }
  ]
}